[{"OBJECT_NAME":"TEVEL2-5","OBJECT_ID":"2025-052E","EPOCH":"2026-03-09T23:11:54.246048","MEAN_MOTION":15.30817434,"ECCENTRICITY":0.00047002,"INCLINATION":97.4013,"RA_OF_ASC_NODE":325.3677,"ARG_OF_PERICENTER":95.3936,"MEAN_ANOMALY":264.7842,"EPHEMERIS_TYPE":0,"CLASSIFICATION_TYPE":"U","NORAD_CAT_ID":63214,"ELEMENT_SET_NO":999,"REV_AT_EPOCH":5491,"BSTAR":0.00071764727,"MEAN_MOTION_DOT":0.00021339,"MEAN_MOTION_DDOT":0},{"OBJECT_NAME":"STARLINK-36431","OBJECT_ID":"2026-005T","EPOCH":"2026-03-09T22:00:01.999584","MEAN_MOTION":15.27537551,"ECCENTRICITY":0.00012342,"INCLINATION":42.9991,"RA_OF_ASC_NODE":237.0254,"ARG_OF_PERICENTER":268.8178,"MEAN_ANOMALY":229.7577,"EPHEMERIS_TYPE":0,"CLASSIFICATION_TYPE":"U","NORAD_CAT_ID":67421,"ELEMENT_SET_NO":999,"REV_AT_EPOCH":584,"BSTAR":0.0028284612,"MEAN_MOTION_DOT":0.00078299,"MEAN_MOTION_DDOT":0}]
